{"type": "FeatureCollection", "features": [ {"type": "Feature", "properties": {"norad_id": 28649, "name": "IRS-P5 (CARTOSAT-1)", "group": "resource", "lat": 61.2865852670043, "lon": 0.5731779493675532, "alt_km": 589.9140511614196, "timestamp": "2025-12-14T05:42:18.113932+00:00", "meta": {"OBJECT_NAME": "IRS-P5 (CARTOSAT-1)", "OBJECT_ID": "2005-017A", "EPOCH": "2025-12-13T14:55:31.067904", "MEAN_MOTION": 14.90409021, "ECCENTRICITY": 0.00011847, "INCLINATION": 97.5499, "RA_OF_ASC_NODE": 13.9961, "ARG_OF_PERICENTER": 48.4106, "MEAN_ANOMALY": 311.7214, "EPHEMERIS_TYPE": 0, "CLASSIFICATION_TYPE": "U", "NORAD_CAT_ID": 28649, "ELEMENT_SET_NO": 999, "REV_AT_EPOCH": 11617, "BSTAR": 0.00028320564, "MEAN_MOTION_DOT": 2.706e-05, "MEAN_MOTION_DDOT": 0}, "tle": {"line1": "1 28649U 05017A   25347.62188736  .00002706  00000+0  28321-3 0  9997", "line2": "2 28649  97.5499  13.9961 0001184  48.4106 311.7214 14.90409021116175"}}, "geometry": {"type": "Point", "coordinates": [0.5731779493675532, 61.2865852670043]}}, {"type": "Feature", "properties": {"norad_id": 28893, "name": "SINAH 1", "group": "resource", "lat": -81.04906852125224, "lon": -175.93234105727788, "alt_km": 696.1779667135797, "timestamp": "2025-12-14T05:42:18.113943+00:00", "meta": {"OBJECT_NAME": "SINAH 1", "OBJECT_ID": "2005-043D", "EPOCH": "2025-12-13T15:20:15.996192", "MEAN_MOTION": 14.63963873, "ECCENTRICITY": 0.00153877, "INCLINATION": 98.2603, "RA_OF_ASC_NODE": 116.1986, "ARG_OF_PERICENTER": 134.3424, "MEAN_ANOMALY": 225.9042, "EPHEMERIS_TYPE": 0, "CLASSIFICATION_TYPE": "U", "NORAD_CAT_ID": 28893, "ELEMENT_SET_NO": 999, "REV_AT_EPOCH": 7337, "BSTAR": 0.00014733579, "MEAN_MOTION_DOT": 7.24e-06, "MEAN_MOTION_DDOT": 0}, "tle": {"line1": "1 28893U 05043D   25347.63907403  .00000724  00000+0  14734-3 0  9999", "line2": "2 28893  98.2603 116.1986 0015387 134.3424 225.9042 14.63963873 73371"}}, "geometry": {"type": "Point", "coordinates": [-175.93234105727788, -81.04906852125224]}}, {"type": "Feature", "properties": {"norad_id": 29079, "name": "EROS B", "group": "resource", "lat": 53.61182740918318, "lon": -65.03446356653379, "alt_km": 358.96397666815847, "timestamp": "2025-12-14T05:42:18.113955+00:00", "meta": {"OBJECT_NAME": "EROS B", "OBJECT_ID": "2006-014A", "EPOCH": "2025-12-13T15:23:33.953280", "MEAN_MOTION": 15.68631586, "ECCENTRICITY": 0.00024635, "INCLINATION": 97.3465, "RA_OF_ASC_NODE": 104.2574, "ARG_OF_PERICENTER": 307.18, "MEAN_ANOMALY": 52.9236, "EPHEMERIS_TYPE": 0, "CLASSIFICATION_TYPE": "U", "NORAD_CAT_ID": 29079, "ELEMENT_SET_NO": 999, "REV_AT_EPOCH": 9094, "BSTAR": 0.0014787052, "MEAN_MOTION_DOT": 0.00170804, "MEAN_MOTION_DDOT": 0}, "tle": {"line1": "1 29079U 06014A   25347.64136520  .00170804  00000+0  14787-2 0  9994", "line2": "2 29079  97.3465 104.2574 0002463 307.1800  52.9236 15.68631586 90948"}}, "geometry": {"type": "Point", "coordinates": [-65.03446356653379, 53.61182740918318]}}, {"type": "Feature", "properties": {"norad_id": 29228, "name": "RESURS-DK 1", "group": "resource", "lat": 68.04629291710032, "lon": -147.10676243684486, "alt_km": 526.931085020824, "timestamp": "2025-12-14T05:42:18.113967+00:00", "meta": {"OBJECT_NAME": "RESURS-DK 1", "OBJECT_ID": "2006-021A", "EPOCH": "2025-12-13T16:34:03.544320", "MEAN_MOTION": 15.12168188, "ECCENTRICITY": 0.00071518, "INCLINATION": 69.9333, "RA_OF_ASC_NODE": 99.3818, "ARG_OF_PERICENTER": 258.4123, "MEAN_ANOMALY": 101.624, "EPHEMERIS_TYPE": 0, "CLASSIFICATION_TYPE": "U", "NORAD_CAT_ID": 29228, "ELEMENT_SET_NO": 999, "REV_AT_EPOCH": 7452, "BSTAR": 0.00021648427, "MEAN_MOTION_DOT": 3.638e-05, "MEAN_MOTION_DDOT": 0}, "tle": {"line1": "1 29228U 06021A   25347.69031880  .00003638  00000+0  21648-3 0  9991", "line2": "2 29228  69.9333  99.3818 0007151 258.4123 101.6240 15.12168188 74528"}}, "geometry": {"type": "Point", "coordinates": [-147.10676243684486, 68.04629291710032]}}, {"type": "Feature", "properties": {"norad_id": 29268, "name": "ARIRANG-2 (KOMPSAT-2)", "group": "resource", "lat": -1.5985539060558727, "lon": -3.5826061909978675, "alt_km": 687.0314411869276, "timestamp": "2025-12-14T05:42:18.113978+00:00", "meta": {"OBJECT_NAME": "ARIRANG-2 (KOMPSAT-2)", "OBJECT_ID": "2006-031A", "EPOCH": "2025-12-13T16:03:07.748352", "MEAN_MOTION": 14.64495961, "ECCENTRICITY": 0.00134749, "INCLINATION": 97.8264, "RA_OF_ASC_NODE": 176.0964, "ARG_OF_PERICENTER": 306.0185, "MEAN_ANOMALY": 118.2198, "EPHEMERIS_TYPE": 0, "CLASSIFICATION_TYPE": "U", "NORAD_CAT_ID": 29268, "ELEMENT_SET_NO": 999, "REV_AT_EPOCH": 3432, "BSTAR": 0.00017307601, "MEAN_MOTION_DOT": 8.73e-06, "MEAN_MOTION_DDOT": 0}, "tle": {"line1": "1 29268U 06031A   25347.66883968  .00000873  00000+0  17308-3 0  9991", "line2": "2 29268  97.8264 176.0964 0013474 306.0185 118.2198 14.64495961 34321"}}, "geometry": {"type": "Point", "coordinates": [-3.5826061909978675, -1.5985539060558727]}}, {"type": "Feature", "properties": {"norad_id": 29709, "name": "LAPAN-TUBSAT", "group": "resource", "lat": -49.71270629342907, "lon": 148.72112986593007, "alt_km": 627.3306858228907, "timestamp": "2025-12-14T05:42:18.113989+00:00", "meta": {"OBJECT_NAME": "LAPAN-TUBSAT", "OBJECT_ID": "2007-001A", "EPOCH": "2025-12-13T15:44:27.623328", "MEAN_MOTION": 14.85671381, "ECCENTRICITY": 0.00135622, "INCLINATION": 98.126, "RA_OF_ASC_NODE": 337.8311, "ARG_OF_PERICENTER": 71.3903, "MEAN_ANOMALY": 288.8783, "EPHEMERIS_TYPE": 0, "CLASSIFICATION_TYPE": "U", "NORAD_CAT_ID": 29709, "ELEMENT_SET_NO": 999, "REV_AT_EPOCH": 2360, "BSTAR": 0.00011362393, "MEAN_MOTION_DOT": 9.29e-06, "MEAN_MOTION_DDOT": 0}, "tle": {"line1": "1 29709U 07001A   25347.65587527  .00000929  00000+0  11362-3 0  9996", "line2": "2 29709  98.1260 337.8311 0013562  71.3903 288.8783 14.85671381 23600"}}, "geometry": {"type": "Point", "coordinates": [148.72112986593007, -49.71270629342907]}}, {"type": "Feature", "properties": {"norad_id": 31113, "name": "HAIYANG-1B", "group": "resource", "lat": -1.109968369871958, "lon": 152.29118612868854, "alt_km": 800.1761168200737, "timestamp": "2025-12-14T05:42:18.114000+00:00", "meta": {"OBJECT_NAME": "HAIYANG-1B", "OBJECT_ID": "2007-010A", "EPOCH": "2025-12-13T12:04:52.085568", "MEAN_MOTION": 14.30965527, "ECCENTRICITY": 0.00142299, "INCLINATION": 98.3315, "RA_OF_ASC_NODE": 331.7499, "ARG_OF_PERICENTER": 35.7934, "MEAN_ANOMALY": 324.4201, "EPHEMERIS_TYPE": 0, "CLASSIFICATION_TYPE": "U", "NORAD_CAT_ID": 31113, "ELEMENT_SET_NO": 999, "REV_AT_EPOCH": 97407, "BSTAR": 0.00010070388, "MEAN_MOTION_DOT": 2.23e-06, "MEAN_MOTION_DDOT": 0}, "tle": {"line1": "1 31113U 07010A   25347.50338062  .00000223  00000+0  10070-3 0  9992", "line2": "2 31113  98.3315 331.7499 0014229  35.7934 324.4201 14.30965527974070"}}, "geometry": {"type": "Point", "coordinates": [152.29118612868854, -1.109968369871958]}}, {"type": "Feature", "properties": {"norad_id": 31598, "name": "COSMO-SKYMED 1", "group": "resource", "lat": -59.806672565776736, "lon": -20.13027089317026, "alt_km": 587.9040875805867, "timestamp": "2025-12-14T05:42:18.114011+00:00", "meta": {"OBJECT_NAME": "COSMO-SKYMED 1", "OBJECT_ID": "2007-023A", "EPOCH": "2025-12-13T15:47:17.342304", "MEAN_MOTION": 14.95773595, "ECCENTRICITY": 0.0001295, "INCLINATION": 97.8834, "RA_OF_ASC_NODE": 173.0628, "ARG_OF_PERICENTER": 90.4268, "MEAN_ANOMALY": 269.7101, "EPHEMERIS_TYPE": 0, "CLASSIFICATION_TYPE": "U", "NORAD_CAT_ID": 31598, "ELEMENT_SET_NO": 999, "REV_AT_EPOCH": 204, "BSTAR": 0.00045383365, "MEAN_MOTION_DOT": 5.003e-05, "MEAN_MOTION_DDOT": 0}, "tle": {"line1": "1 31598U 07023A   25347.65783961  .00005003  00000+0  45383-3 0  9997", "line2": "2 31598  97.8834 173.0628 0001295  90.4268 269.7101 14.95773595  2047"}}, "geometry": {"type": "Point", "coordinates": [-20.13027089317026, -59.806672565776736]}}, {"type": "Feature", "properties": {"norad_id": 31698, "name": "TERRASAR-X", "group": "resource", "lat": 22.077940115676572, "lon": -9.44507112256753, "alt_km": 507.70270502697076, "timestamp": "2025-12-14T05:42:18.114022+00:00", "meta": {"OBJECT_NAME": "TERRASAR-X", "OBJECT_ID": "2007-026A", "EPOCH": "2025-12-13T12:13:05.117664", "MEAN_MOTION": 15.19151549, "ECCENTRICITY": 0.00017647, "INCLINATION": 97.4456, "RA_OF_ASC_NODE": 352.8775, "ARG_OF_PERICENTER": 89.7934, "MEAN_ANOMALY": 270.3503, "EPHEMERIS_TYPE": 0, "CLASSIFICATION_TYPE": "U", "NORAD_CAT_ID": 31698, "ELEMENT_SET_NO": 999, "REV_AT_EPOCH": 2503, "BSTAR": 0.00010409632, "MEAN_MOTION_DOT": 2.12e-05, "MEAN_MOTION_DDOT": 0}, "tle": {"line1": "1 31698U 07026A   25347.50908701  .00002120  00000+0  10410-3 0  9996", "line2": "2 31698  97.4456 352.8775 0001764  89.7934 270.3503 15.19151549 25030"}}, "geometry": {"type": "Point", "coordinates": [-9.44507112256753, 22.077940115676572]}}, {"type": "Feature", "properties": {"norad_id": 32060, "name": "WORLDVIEW-1 (WV-1)", "group": "resource", "lat": 52.90008842879456, "lon": 95.82483593653038, "alt_km": 486.38949207537735, "timestamp": "2025-12-14T05:42:18.114032+00:00", "meta": {"OBJECT_NAME": "WORLDVIEW-1 (WV-1)", "OBJECT_ID": "2007-041A", "EPOCH": "2025-12-13T13:43:12.987840", "MEAN_MOTION": 15.24707792, "ECCENTRICITY": 8.102e-05, "INCLINATION": 97.383, "RA_OF_ASC_NODE": 105.0405, "ARG_OF_PERICENTER": 109.7659, "MEAN_ANOMALY": 250.3666, "EPHEMERIS_TYPE": 0, "CLASSIFICATION_TYPE": "U", "NORAD_CAT_ID": 32060, "ELEMENT_SET_NO": 999, "REV_AT_EPOCH": 1460, "BSTAR": 0.00038918492, "MEAN_MOTION_DOT": 9.56e-05, "MEAN_MOTION_DDOT": 0}, "tle": {"line1": "1 32060U 07041A   25347.57167810  .00009560  00000+0  38918-3 0  9990", "line2": "2 32060  97.3830 105.0405 0000810 109.7659 250.3666 15.24707792 14607"}}, "geometry": {"type": "Point", "coordinates": [95.82483593653038, 52.90008842879456]}}]}